OBJECT_NAME,OBJECT_ID,EPOCH,MEAN_MOTION,ECCENTRICITY,INCLINATION,RA_OF_ASC_NODE,ARG_OF_PERICENTER,MEAN_ANOMALY,EPHEMERIS_TYPE,CLASSIFICATION_TYPE,NORAD_CAT_ID,ELEMENT_SET_NO,REV_AT_EPOCH,BSTAR,MEAN_MOTION_DOT,MEAN_MOTION_DDOT
STARLINK-3979,2022-052L,2025-07-26T04:04:44.618304,15.08841205,.0001352,53.2160,216.0081,86.0258,274.0888,0,U,52608,999,17703,-.56548E-4,-.1188E-4,0
STARLINK-3997,2022-052M,2025-07-25T08:44:12.963552,15.08845019,.0001068,53.2165,219.5790,94.9508,265.1606,0,U,52609,999,17654,.76957E-4,.937E-5,0
STARLINK-3998,2022-052N,2025-07-26T05:05:01.719744,15.08834469,.0001239,53.2171,220.8215,81.8510,278.2622,0,U,52610,999,17696,-.4773E-4,-.1047E-4,0
STARLINK-3980,2022-052P,2025-07-26T04:54:25.635168,15.08834847,.000086,53.2162,220.8518,76.7719,283.3369,0,U,52611,999,17696,.2209E-4,.64E-6,0
STARLINK-4002,2022-052Q,2025-07-26T03:59:26.633472,15.08837675,.0001075,53.2162,216.0257,79.3372,280.7741,0,U,52612,999,17703,.43103E-4,.398E-5,0
STARLINK-3982,2022-052S,2025-07-26T05:14:57.334560,15.08836019,.0001239,53.2147,205.7873,76.7911,283.3219,0,U,52614,999,17717,-.40944E-4,-.939E-5,0
STARLINK-4011,2022-052T,2025-07-26T04:49:07.871520,15.08839799,.0001165,53.2153,220.8664,79.0569,281.0554,0,U,52615,999,17696,-.7381E-4,-.1462E-4,0
STARLINK-4015,2022-052U,2025-07-26T05:04:21.644832,15.08836732,.0001019,53.2167,205.8225,78.5590,281.5516,0,U,52616,999,17717,-.56707E-6,-.297E-5,0
STARLINK-3996,2022-052V,2025-07-26T04:53:46.228128,15.08841230,.0001098,53.2162,205.8560,68.9230,291.1879,0,U,52617,999,17717,.72521E-4,.867E-5,0
STARLINK-3983,2022-052W,2025-07-25T06:43:39.616032,15.08841017,.000115,53.2157,210.0015,78.7225,281.3896,0,U,52618,999,17703,-.43627E-5,-.357E-5,0
STARLINK-3741,2022-052X,2025-07-26T04:48:27.118368,15.08837866,.0001348,53.2177,205.8634,79.3309,280.7835,0,U,52619,999,17717,-.24036E-4,-.67E-5,0
STARLINK-3975,2022-052Y,2025-07-26T04:43:49.757088,15.08833720,.0001111,53.2157,220.8856,77.7203,282.3914,0,U,52620,999,17696,-.22121E-4,-.64E-5,0
STARLINK-3984,2022-052Z,2025-07-26T04:37:51.463200,15.08841535,.0001001,53.2160,205.9059,75.5326,284.5777,0,U,52621,999,17717,.44851E-4,.426E-5,0
STARLINK-4008,2022-052AA,2025-07-25T08:46:12.669024,15.08834352,.0001138,53.2163,224.6221,83.4178,276.6944,0,U,52622,999,17646,-.1911E-4,-.592E-5,0
STARLINK-3986,2022-052AB,2025-07-26T04:32:33.860256,15.08839397,.0000919,53.2165,205.9221,80.5271,279.5825,0,U,52623,999,17717,.22799E-4,.75E-6,0
STARLINK-3988,2022-052AD,2025-07-25T09:22:38.469792,15.08835453,.0001005,53.2162,209.5071,76.8552,283.2552,0,U,52625,999,17667,.7589E-5,-.167E-5,0
STARLINK-3990,2022-052AE,2025-07-26T04:43:09.722784,15.08838568,.0001213,53.2164,205.8899,74.9685,285.1441,0,U,52626,999,17717,.10028E-4,-.128E-5,0
STARLINK-3992,2022-052AF,2025-07-26T04:11:22.501536,15.08833110,.0001167,53.2158,205.9860,82.3203,277.7921,0,U,52627,999,17717,-.2062E-4,-.616E-5,0
STARLINK-4001,2022-052AG,2025-07-25T11:51:41.001120,15.08836144,.0001326,53.2177,224.0439,70.0358,290.0777,0,U,52628,999,17648,.1879E-5,-.258E-5,0
STARLINK-4022,2022-052AH,2025-07-25T07:20:45.771648,15.08838384,.0001496,53.2177,209.8506,95.5991,264.5171,0,U,52629,999,17666,-.23083E-4,-.655E-5,0
STARLINK-3989,2022-052AJ,2025-07-26T04:21:58.340736,15.08834352,.0001014,53.2165,205.9559,88.9383,271.1725,0,U,52630,999,17717,-.28187E-4,-.736E-5,0
STARLINK-3794,2022-052AK,2025-07-26T04:02:09.316032,15.08834321,.0001114,53.2160,206.0247,81.6364,278.4755,0,U,52631,999,17717,.13646E-4,-.71E-6,0
STARLINK-3995,2022-052AL,2025-07-26T04:16:40.753344,15.08831125,.0001167,53.2161,205.9711,83.5793,276.5332,0,U,52632,999,17717,-.32707E-4,-.808E-5,0
STARLINK-3994,2022-052AM,2025-07-25T08:40:14.659392,15.08835671,.0001366,53.2161,209.6368,68.7742,291.3396,0,U,52633,999,17668,-.71494E-5,-.402E-5,0
STARLINK-3974,2022-052AN,2025-07-25T07:26:04.471872,15.08827338,.0001597,53.2158,209.8952,63.5883,296.5273,0,U,52634,999,17666,-.77764E-4,-.1525E-4,0
STARLINK-3978,2022-052AP,2025-07-25T06:39:41.455296,15.08832765,.0001024,53.2160,200.0138,77.4695,282.6412,0,U,52635,999,17680,.14128E-4,-.63E-6,0
STARLINK-3967,2022-052AQ,2025-07-26T03:55:28.711200,15.08847939,.0001268,53.2159,206.0385,58.9482,301.1634,0,U,52636,999,17717,.41025E-4,.365E-5,0
STARLINK-3961,2022-052AR,2025-07-26T04:49:48.923616,15.08817423,.0001048,53.2159,195.8688,78.1705,281.9405,0,U,52637,999,17731,.12659E-3,.1726E-4,0
STARLINK-3941,2022-052AS,2025-07-25T07:10:09.607584,15.08834111,.0001187,53.2157,209.9177,81.0981,279.0145,0,U,52638,999,17747,-.6049E-5,-.384E-5,0
STARLINK-3968,2022-052AT,2025-07-25T09:29:15.703296,15.08838209,.0001092,53.2163,199.4854,80.8129,279.2986,0,U,52639,999,17762,-.33816E-4,-.826E-5,0
