STARLINK-3979           
1 52608U 22052L   25207.16996086 -.00001188  00000+0 -56548-4 0  9994
2 52608  53.2160 216.0081 0001352  86.0258 274.0888 15.08841205177037
STARLINK-3997           
1 52609U 22052M   25206.36403893  .00000937  00000+0  76957-4 0  9990
2 52609  53.2165 219.5790 0001068  94.9508 265.1606 15.08845019176549
STARLINK-3998           
1 52610U 22052N   25207.21182546 -.00001047  00000+0 -47730-4 0  9998
2 52610  53.2171 220.8215 0001239  81.8510 278.2622 15.08834469176969
STARLINK-3980           
1 52611U 22052P   25207.20446337  .00000064  00000+0  22090-4 0  9997
2 52611  53.2162 220.8518 0000860  76.7719 283.3369 15.08834847176964
STARLINK-4002           
1 52612U 22052Q   25207.16628048  .00000398  00000+0  43103-4 0  9992
2 52612  53.2162 216.0257 0001075  79.3372 280.7741 15.08837675177031
STARLINK-3982           
1 52614U 22052S   25207.21871915 -.00000939  00000+0 -40944-4 0  9996
2 52614  53.2147 205.7873 0001239  76.7911 283.3219 15.08836019177172
STARLINK-4011           
1 52615U 22052T   25207.20078555 -.00001462  00000+0 -73810-4 0  9995
2 52615  53.2153 220.8664 0001165  79.0569 281.0554 15.08839799176960
STARLINK-4015           
1 52616U 22052U   25207.21136163 -.00000297  00000+0 -56707-6 0  9990
2 52616  53.2167 205.8225 0001019  78.5590 281.5516 15.08836732177179
STARLINK-3996           
1 52617U 22052V   25207.20400727  .00000867  00000+0  72521-4 0  9991
2 52617  53.2162 205.8560 0001098  68.9230 291.1879 15.08841230177176
STARLINK-3983           
1 52618U 22052W   25206.28031963 -.00000357  00000+0 -43627-5 0  9993
2 52618  53.2157 210.0015 0001150  78.7225 281.3896 15.08841017177034
STARLINK-3741           
1 52619U 22052X   25207.20031387 -.00000670  00000+0 -24036-4 0  9997
2 52619  53.2177 205.8634 0001348  79.3309 280.7835 15.08837866177173
STARLINK-3975           
1 52620U 22052Y   25207.19710367 -.00000640  00000+0 -22121-4 0  9999
2 52620  53.2157 220.8856 0001111  77.7203 282.3914 15.08833720176966
STARLINK-3984           
1 52621U 22052Z   25207.19295675  .00000426  00000+0  44851-4 0  9994
2 52621  53.2160 205.9059 0001001  75.5326 284.5777 15.08841535177178
STARLINK-4008           
1 52622U 22052AA  25206.36542441 -.00000592  00000+0 -19110-4 0  9995
2 52622  53.2163 224.6221 0001138  83.4178 276.6944 15.08834352176463
STARLINK-3986           
1 52623U 22052AB  25207.18928079  .00000075  00000+0  22799-4 0  9993
2 52623  53.2165 205.9221 0000919  80.5271 279.5825 15.08839397177179
STARLINK-3988           
1 52625U 22052AD  25206.39072303 -.00000167  00000+0  75890-5 0  9991
2 52625  53.2162 209.5071 0001005  76.8552 283.2552 15.08835453176670
STARLINK-3990           
1 52626U 22052AE  25207.19664031 -.00000128  00000+0  10028-4 0  9994
2 52626  53.2164 205.8899 0001213  74.9685 285.1441 15.08838568177171
STARLINK-3992           
1 52627U 22052AF  25207.17456599 -.00000616  00000+0 -20620-4 0  9993
2 52627  53.2158 205.9860 0001167  82.3203 277.7921 15.08833110177179
STARLINK-4001           
1 52628U 22052AG  25206.49422455 -.00000258  00000+0  18790-5 0  9999
2 52628  53.2177 224.0439 0001326  70.0358 290.0777 15.08836144176487
STARLINK-4022           
1 52629U 22052AH  25206.30608532 -.00000655  00000+0 -23083-4 0  9994
2 52629  53.2177 209.8506 0001496  95.5991 264.5171 15.08838384176669
STARLINK-3989           
1 52630U 22052AJ  25207.18192524 -.00000736  00000+0 -28187-4 0  9992
2 52630  53.2165 205.9559 0001014  88.9383 271.1725 15.08834352177177
STARLINK-3794           
1 52631U 22052AK  25207.16816338 -.00000071  00000+0  13646-4 0  9992
2 52631  53.2160 206.0247 0001114  81.6364 278.4755 15.08834321177178
STARLINK-3995           
1 52632U 22052AL  25207.17824946 -.00000808  00000+0 -32707-4 0  9996
2 52632  53.2161 205.9711 0001167  83.5793 276.5332 15.08831125177178
STARLINK-3994           
1 52633U 22052AM  25206.36128078 -.00000402  00000+0 -71494-5 0  9997
2 52633  53.2161 209.6368 0001366  68.7742 291.3396 15.08835671176688
STARLINK-3974           
1 52634U 22052AN  25206.30977398 -.00001525  00000+0 -77764-4 0  9991
2 52634  53.2158 209.8952 0001597  63.5883 296.5273 15.08827338176661
STARLINK-3978           
1 52635U 22052AP  25206.27756314 -.00000063  00000+0  14128-4 0  9991
2 52635  53.2160 200.0138 0001024  77.4695 282.6412 15.08832765176801
STARLINK-3967           
1 52636U 22052AQ  25207.16352675  .00000365  00000+0  41025-4 0  9993
2 52636  53.2159 206.0385 0001268  58.9482 301.1634 15.08847939177171
STARLINK-3961           
1 52637U 22052AR  25207.20126069  .00001726  00000+0  12659-3 0  9997
2 52637  53.2159 195.8688 0001048  78.1705 281.9405 15.08817423177313
STARLINK-3941           
1 52638U 22052AS  25206.29872231 -.00000384  00000+0 -60490-5 0  9994
2 52638  53.2157 209.9177 0001187  81.0981 279.0145 15.08834111177474
STARLINK-3968           
1 52639U 22052AT  25206.39532064 -.00000826  00000+0 -33816-4 0  9995
2 52639  53.2163 199.4854 0001092  80.8129 279.2986 15.08838209177627
